FLOCK 4G-8              
1 62613U 25009E   26068.72381419  .00013559  00000+0  50438-3 0  9996
2 62613  97.4045 151.2834 0003050 315.2538  44.8455 15.27623414 63721
STARLINK-33720          
1 63468U 25070J   26068.54516576  .00022742  00000+0  83312-3 0  9998
2 63468  42.9952 260.6789 0000623 340.7460  19.3367 15.27590949 52954
